H1 CPF 01  gfz 2021 12 29 13  8632 tandemx   
H2 1003001  6202 36605    2021 12 29 12 59 42 2022 01 03 00 00 42   120 1 1  0 0 0
H9
10 0 59578  59742.000000  0    1251076.403   -456901.682   6747568.664
10 0 59578  59862.000000  0     400620.603   -801619.903   6818984.485
10 0 59578  59982.000000  0    -462602.371  -1117356.079   6770583.326
10 0 59578  60102.000000  0   -1322976.324  -1398513.759   6603211.986
10 0 59578  60222.000000  0   -2164841.249  -1640370.967   6319793.050
10 0 59578  60342.000000  0   -2972776.058  -1839158.725   5925276.894
10 0 59578  60462.000000  0   -3731882.033  -1992120.075   5426563.508
10 0 59578  60582.000000  0   -4428062.929  -2097548.720   4832387.885
10 0 59578  60702.000000  0   -5048292.722  -2154805.020   4153171.677
10 0 59578  60822.000000  0   -5580866.412  -2164308.381   3400843.438
10 0 59578  60942.000000  0   -6015628.579  -2127506.580   2588631.433
10 0 59578  61062.000000  0   -6344176.203  -2046823.976   1730831.671
10 0 59578  61182.000000  0   -6560030.891  -1925588.733    842551.680
10 0 59578  61302.000000  0   -6658771.332  -1767939.536    -60563.270
10 0 59578  61422.000000  0   -6638126.017  -1578714.779   -962614.070
10 0 59578  61542.000000  0   -6498021.759  -1363327.267  -1847737.185
10 0 59578  61662.000000  0   -6240587.515  -1127628.165  -2700391.432
10 0 59578  61782.000000  0   -5870114.416   -877763.950  -3505636.436
10 0 59578  61902.000000  0   -5392973.511   -620029.052  -4249397.211
10 0 59578  62022.000000  0   -4817493.910   -360717.973  -4918709.268
10 0 59578  62142.000000  0   -4153804.802   -105981.303  -5501939.795
10 0 59578  62262.000000  0   -3413645.538    138311.143  -5988981.818
10 0 59578  62382.000000  0   -2610149.235    366697.588  -6371417.606
10 0 59578  62502.000000  0   -1757606.061    574238.881  -6642652.031
10 0 59578  62622.000000  0    -871208.561    756618.555  -6798015.802
10 0 59578  62742.000000  0      33215.652    910228.221  -6834836.227
10 0 59578  62862.000000  0     939478.963   1032235.651  -6752477.479
10 0 59578  62982.000000  0    1831316.152   1120635.089  -6552353.235
10 0 59578  63102.000000  0    2692670.846   1174280.215  -6237905.474
10 0 59578  63222.000000  0    3507979.956   1192898.164  -5814551.078
10 0 59578  63342.000000  0    4262451.277   1177084.247  -5289597.131
10 0 59578  63462.000000  0    4942332.547   1128277.872  -4672126.996
10 0 59578  63582.000000  0    5535167.553   1048720.133  -3972854.288
10 0 59578  63702.000000  0    6030032.297    941393.107  -3203946.433
10 0 59578  63822.000000  0    6417746.854    809941.853  -2378820.691
10 0 59578  63942.000000  0    6691058.836    658581.101  -1511914.194
10 0 59578  64062.000000  0    6844791.792    491987.776   -618430.285
10 0 59578  64182.000000  0    6875952.958    315182.120    285932.235
10 0 59578  64302.000000  0    6783799.157    133401.202   1185260.927
10 0 59578  64422.000000  0    6569858.455    -48033.910   2063718.185
10 0 59578  64542.000000  0    6237905.085   -223852.340   2905829.990
10 0 59578  64662.000000  0    5793888.157   -388966.391   3696766.795
10 0 59578  64782.000000  0    5245817.034   -538598.741   4422609.775
10 0 59578  64902.000000  0    4603608.923   -668401.430   5070599.370
10 0 59578  65022.000000  0    3878898.042   -774564.394   5629360.298
10 0 59578  65142.000000  0    3084814.636   -853908.949   6089097.514
10 0 59578  65262.000000  0    2235739.280   -903966.331   6441763.087
10 0 59578  65382.000000  0    1347037.376   -923039.205   6681191.422
10 0 59578  65502.000000  0     434776.798   -910245.234   6803202.213
10 0 59578  65622.000000  0    -484564.608   -865541.247   6805667.685
10 0 59578  65742.000000  0   -1394395.929   -789728.578   6688546.180
10 0 59578  65862.000000  0   -2278311.136   -684438.716   6453882.380
10 0 59578  65982.000000  0   -3120383.318   -552099.646   6105774.019
10 0 59578  66102.000000  0   -3905452.451   -395883.368   5650306.147
10 0 59578  66222.000000  0   -4619402.519   -219635.892   5095451.396
10 0 59578  66342.000000  0   -5249421.974    -27790.511   4450935.991
10 0 59578  66462.000000  0   -5784241.824    174733.789   3728073.498
10 0 59578  66582.000000  0   -6214346.019    382647.189   2939568.824
10 0 59578  66702.000000  0   -6532150.919    590414.767   2099295.968
10 0 59578  66822.000000  0   -6732148.600    792390.118   1222051.103
10 0 59578  66942.000000  0   -6811010.132    982953.008    323286.289
10 0 59578  67062.000000  0   -6767645.075   1156648.304   -581171.232
10 0 59578  67182.000000  0   -6603214.633   1308322.191  -1475407.146
10 0 59578  67302.000000  0   -6321099.654   1433251.684  -2343707.637
10 0 59578  67422.000000  0   -5926826.357   1527266.140  -3170842.610
10 0 59578  67542.000000  0   -5427947.377   1586855.615  -3942338.792
10 0 59578  67662.000000  0   -4833884.121   1609263.378  -4644733.209
10 0 59578  67782.000000  0   -4155736.385   1592561.798  -5265804.229
10 0 59578  67902.000000  0   -3406064.076   1535709.580  -5794776.243
10 0 59578  68022.000000  0   -2598647.436   1438589.565  -6222496.552
10 0 59578  68142.000000  0   -1748229.525   1302026.396  -6541583.103
10 0 59578  68262.000000  0    -870245.391   1127784.868  -6746539.944
10 0 59578  68382.000000  0      19454.565    918547.940  -6833840.844
10 0 59578  68502.000000  0     904883.318    677876.381  -6801983.007
10 0 59578  68622.000000  0    1770197.537    410149.432  -6651512.735
10 0 59578  68742.000000  0    2599975.563    120486.980  -6385016.729
10 0 59578  68862.000000  0    3379486.899   -185344.662  -6007082.724
10 0 59578  68982.000000  0    4094950.959   -501043.156  -5524227.785
10 0 59578  69102.000000  0    4733779.852   -819894.493  -4944796.954
10 0 59578  69222.000000  0    5284805.125  -1134910.259  -4278831.522
10 0 59578  69342.000000  0    5738481.168  -1438974.845  -3537905.175
10 0 59578  69462.000000  0    6087061.025  -1724999.849  -2734931.247
10 0 59578  69582.000000  0    6324740.663  -1986082.726  -1883942.891
10 0 59578  69702.000000  0    6447767.276  -2215665.818   -999849.156
10 0 59578  69822.000000  0    6454508.441  -2407691.302    -98171.813
10 0 59578  69942.000000  0    6345479.936  -2556748.835    805232.513
10 0 59578  70062.000000  0    6123330.524  -2658211.143   1694459.266
10 0 59578  70182.000000  0    5792782.913  -2708354.465   2553845.576
10 0 59578  70302.000000  0    5360532.731  -2704460.665   3368254.799
10 0 59578  70422.000000  0    4835107.484  -2644897.301   4123350.487
10 0 59578  70542.000000  0    4226691.490  -2529174.368   4805851.606
10 0 59578  70662.000000  0    3546921.869  -2357978.095   5403768.503
10 0 59578  70782.000000  0    2808656.294  -2133179.382   5906612.936
10 0 59578  70902.000000  0    2025722.366  -1857816.607   6305577.220
10 0 59578  71022.000000  0    1212653.473  -1536054.941   6593682.873
10 0 59578  71142.000000  0     384415.435  -1173122.438   6765896.797
10 0 59578  71262.000000  0    -443870.473   -775223.691   6819213.390
10 0 59578  71382.000000  0   -1257202.888   -349433.082   6752702.748
10 0 59578  71502.000000  0   -2040970.726     96430.718   6567525.715
10 0 59578  71622.000000  0   -2781214.575    553947.807   6266915.086
10 0 59578  71742.000000  0   -3464875.621   1014255.042   5856123.239
10 0 59578  71862.000000  0   -4080028.674   1468216.436   5342336.520
10 0 59578  71982.000000  0   -4616095.693   1906603.444   4734555.926
10 0 59578  72102.000000  0   -5064034.832   2320282.373   4043444.418
10 0 59578  72222.000000  0   -5416500.356   2700404.732   3281143.047
10 0 59578  72342.000000  0   -5667970.271   3038595.792   2461059.196
10 0 59578  72462.000000  0   -5814839.790   3327137.942   1597630.185
10 0 59578  72582.000000  0   -5855477.648   3559144.772    706064.355
10 0 59578  72702.000000  0   -5790240.891   3728719.526   -197934.629
10 0 59578  72822.000000  0   -5621450.096   3831094.340  -1098452.479
10 0 59578  72942.000000  0   -5353325.537   3862747.897  -1979653.422
10 0 59578  73062.000000  0   -4991883.885   3821496.927  -2826068.246
10 0 59578  73182.000000  0   -4544799.154   3706559.488  -3622871.569
10 0 59578  73302.000000  0   -4021232.548   3518588.886  -4356143.480
10 0 59578  73422.000000  0   -3431637.347   3259678.860  -5013110.141
10 0 59578  73542.000000  0   -2787543.126   2933339.895  -5582359.528
10 0 59578  73662.000000  0   -2101326.749   2544448.975  -6054030.580
10 0 59578  73782.000000  0   -1385971.374   2099172.849  -6419974.303
10 0 59578  73902.000000  0    -654820.567   1604866.666  -6673882.093
10 0 59578  74022.000000  0      78667.242   1069951.606  -6811383.744
10 0 59578  74142.000000  0     801160.528    503772.638  -6830114.196
10 0 59578  74262.000000  0    1499691.479    -83561.292  -6729751.630
10 0 59578  74382.000000  0    2161884.000   -681354.088  -6512021.293
10 0 59578  74502.000000  0    2776167.624  -1278511.985  -6180669.064
10 0 59578  74622.000000  0    3331977.224  -1863744.179  -5741403.804
10 0 59578  74742.000000  0    3819934.541  -2425771.408  -5201810.044
10 0 59578  74862.000000  0    4232010.828  -2953542.226  -4571228.532
10 0 59578  74982.000000  0    4561663.432  -3436450.446  -3860604.309
10 0 59578  75102.000000  0    4803945.956  -3864548.947  -3082306.773
10 0 59578  75222.000000  0    4955590.460  -4228757.235  -2249921.694
10 0 59578  75342.000000  0    5015057.466  -4521056.774  -1378017.125
10 0 59578  75462.000000  0    4982552.516  -4734669.868   -481887.941
10 0 59578  75582.000000  0    4860006.797  -4864216.936    422717.181
10 0 59578  75702.000000  0    4651022.562  -4905846.857   1319879.858
10 0 59578  75822.000000  0    4360784.554  -4857336.646   2193801.441
10 0 59578  75942.000000  0    3995938.874  -4718158.351   3029089.567
10 0 59578  76062.000000  0    3564444.069  -4489511.855   3811036.916
10 0 59578  76182.000000  0    3075396.418  -4174322.065   4525885.956
99
